[{"OBJECT_NAME":"CUBESAT XI-V","OBJECT_ID":"2005-043F","EPOCH":"2026-03-28T16:14:01.785984","MEAN_MOTION":14.72395539,"ECCENTRICITY":0.0015362,"INCLINATION":98.2868,"RA_OF_ASC_NODE":241.6643,"ARG_OF_PERICENTER":101.1756,"MEAN_ANOMALY":259.1179,"EPHEMERIS_TYPE":0,"CLASSIFICATION_TYPE":"U","NORAD_CAT_ID":28895,"ELEMENT_SET_NO":999,"REV_AT_EPOCH":8990,"BSTAR":0.00032469,"MEAN_MOTION_DOT":2.007e-5,"MEAN_MOTION_DDOT":0},{"OBJECT_NAME":"CLOUDSAT","OBJECT_ID":"2006-016A","EPOCH":"2026-03-29T04:07:07.351968","MEAN_MOTION":14.86223406,"ECCENTRICITY":0.0004375,"INCLINATION":98.4021,"RA_OF_ASC_NODE":121.0013,"ARG_OF_PERICENTER":219.9234,"MEAN_ANOMALY":140.1659,"EPHEMERIS_TYPE":0,"CLASSIFICATION_TYPE":"U","NORAD_CAT_ID":29107,"ELEMENT_SET_NO":999,"REV_AT_EPOCH":6262,"BSTAR":0.00017,"MEAN_MOTION_DOT":1.433e-5,"MEAN_MOTION_DDOT":0},{"OBJECT_NAME":"CALIPSO","OBJECT_ID":"2006-016B","EPOCH":"2026-03-29T03:24:11.443104","MEAN_MOTION":14.69187918,"ECCENTRICITY":0.0001471,"INCLINATION":98.4521,"RA_OF_ASC_NODE":101.0692,"ARG_OF_PERICENTER":109.0107,"MEAN_ANOMALY":251.1257,"EPHEMERIS_TYPE":0,"CLASSIFICATION_TYPE":"U","NORAD_CAT_ID":29108,"ELEMENT_SET_NO":999,"REV_AT_EPOCH":6130,"BSTAR":0.00024351,"MEAN_MOTION_DOT":1.381e-5,"MEAN_MOTION_DDOT":0},{"OBJECT_NAME":"HINODE (SOLAR-B)","OBJECT_ID":"2006-041A","EPOCH":"2026-03-29T01:25:05.946240","MEAN_MOTION":14.68504391,"ECCENTRICITY":0.0017562,"INCLINATION":98.0608,"RA_OF_ASC_NODE":105.3797,"ARG_OF_PERICENTER":177.7727,"MEAN_ANOMALY":182.356,"EPHEMERIS_TYPE":0,"CLASSIFICATION_TYPE":"U","NORAD_CAT_ID":29479,"ELEMENT_SET_NO":999,"REV_AT_EPOCH":4311,"BSTAR":0.00014349,"MEAN_MOTION_DOT":7.84e-6,"MEAN_MOTION_DDOT":0},{"OBJECT_NAME":"METOP-A","OBJECT_ID":"2006-044A","EPOCH":"2026-03-29T04:31:13.148832","MEAN_MOTION":14.75644767,"ECCENTRICITY":0.0173949,"INCLINATION":98.3254,"RA_OF_ASC_NODE":192.4341,"ARG_OF_PERICENTER":324.7677,"MEAN_ANOMALY":94.565,"EPHEMERIS_TYPE":0,"CLASSIFICATION_TYPE":"U","NORAD_CAT_ID":29499,"ELEMENT_SET_NO":999,"REV_AT_EPOCH":1365,"BSTAR":0.00020324,"MEAN_MOTION_DOT":1.707e-5,"MEAN_MOTION_DDOT":0},{"OBJECT_NAME":"SHIJIAN-6 02B (SJ-6 02B)","OBJECT_ID":"2006-046B","EPOCH":"2026-03-29T03:54:59.730912","MEAN_MOTION":15.01094763,"ECCENTRICITY":0.0012782,"INCLINATION":97.7102,"RA_OF_ASC_NODE":117.7467,"ARG_OF_PERICENTER":340.9439,"MEAN_ANOMALY":19.1305,"EPHEMERIS_TYPE":0,"CLASSIFICATION_TYPE":"U","NORAD_CAT_ID":29506,"ELEMENT_SET_NO":999,"REV_AT_EPOCH":5873,"BSTAR":0.00018658,"MEAN_MOTION_DOT":2.33e-5,"MEAN_MOTION_DDOT":0},{"OBJECT_NAME":"DMSP 5D-3 F17 (USA 191)","OBJECT_ID":"2006-050A","EPOCH":"2026-03-29T02:58:29.597088","MEAN_MOTION":14.14972726,"ECCENTRICITY":0.0008945,"INCLINATION":98.7409,"RA_OF_ASC_NODE":96.3249,"ARG_OF_PERICENTER":286.8612,"MEAN_ANOMALY":73.158,"EPHEMERIS_TYPE":0,"CLASSIFICATION_TYPE":"U","NORAD_CAT_ID":29522,"ELEMENT_SET_NO":999,"REV_AT_EPOCH":110,"BSTAR":0.00013871,"MEAN_MOTION_DOT":2.25e-6,"MEAN_MOTION_DDOT":0},{"OBJECT_NAME":"LAPAN-TUBSAT","OBJECT_ID":"2007-001A","EPOCH":"2026-03-29T04:29:39.754752","MEAN_MOTION":14.85856822,"ECCENTRICITY":0.0013594,"INCLINATION":98.1347,"RA_OF_ASC_NODE":85.6174,"ARG_OF_PERICENTER":86.2598,"MEAN_ANOMALY":274.017,"EPHEMERIS_TYPE":0,"CLASSIFICATION_TYPE":"U","NORAD_CAT_ID":29709,"ELEMENT_SET_NO":999,"REV_AT_EPOCH":3927,"BSTAR":2.502e-5,"MEAN_MOTION_DOT":1.6e-6,"MEAN_MOTION_DDOT":0},{"OBJECT_NAME":"HAIYANG-1B","OBJECT_ID":"2007-010A","EPOCH":"2026-03-28T22:42:06.562656","MEAN_MOTION":14.31005416,"ECCENTRICITY":0.0014744,"INCLINATION":98.3452,"RA_OF_ASC_NODE":72.9243,"ARG_OF_PERICENTER":79.9917,"MEAN_ANOMALY":280.293,"EPHEMERIS_TYPE":0,"CLASSIFICATION_TYPE":"U","NORAD_CAT_ID":31113,"ELEMENT_SET_NO":999,"REV_AT_EPOCH":98915,"BSTAR":6.3282e-5,"MEAN_MOTION_DOT":1.25e-6,"MEAN_MOTION_DDOT":0},{"OBJECT_NAME":"BEIDOU-2 M1","OBJECT_ID":"2007-011A","EPOCH":"2026-03-27T14:57:36.977760","MEAN_MOTION":1.7734921,"ECCENTRICITY":0.0001952,"INCLINATION":50.9604,"RA_OF_ASC_NODE":221.9879,"ARG_OF_PERICENTER":29.0034,"MEAN_ANOMALY":330.9599,"EPHEMERIS_TYPE":0,"CLASSIFICATION_TYPE":"U","NORAD_CAT_ID":31115,"ELEMENT_SET_NO":999,"REV_AT_EPOCH":7470,"BSTAR":0,"MEAN_MOTION_DOT":-2.0e-7,"MEAN_MOTION_DDOT":0},{"OBJECT_NAME":"CAPE-1","OBJECT_ID":"2007-012P","EPOCH":"2026-03-28T21:44:02.776416","MEAN_MOTION":14.64668975,"ECCENTRICITY":0.008303,"INCLINATION":98.4393,"RA_OF_ASC_NODE":60.2907,"ARG_OF_PERICENTER":322.6407,"MEAN_ANOMALY":36.9038,"EPHEMERIS_TYPE":0,"CLASSIFICATION_TYPE":"U","NORAD_CAT_ID":31130,"ELEMENT_SET_NO":999,"REV_AT_EPOCH":660,"BSTAR":0.00040709,"MEAN_MOTION_DOT":2.221e-5,"MEAN_MOTION_DDOT":0},{"OBJECT_NAME":"CBERS 2B","OBJECT_ID":"2007-042A","EPOCH":"2026-03-28T20:38:35.012544","MEAN_MOTION":14.41430427,"ECCENTRICITY":0.00302281,"INCLINATION":98.3854,"RA_OF_ASC_NODE":33.9446,"ARG_OF_PERICENTER":214.9549,"MEAN_ANOMALY":207.6098,"EPHEMERIS_TYPE":0,"CLASSIFICATION_TYPE":"U","NORAD_CAT_ID":32062,"ELEMENT_SET_NO":999,"REV_AT_EPOCH":97311,"BSTAR":0.00010025277,"MEAN_MOTION_DOT":2.84e-6,"MEAN_MOTION_DDOT":0},{"OBJECT_NAME":"COSMO-SKYMED 2","OBJECT_ID":"2007-059A","EPOCH":"2026-03-29T03:51:55.769760","MEAN_MOTION":14.82148334,"ECCENTRICITY":0.0001288,"INCLINATION":97.8878,"RA_OF_ASC_NODE":272.9162,"ARG_OF_PERICENTER":87.8197,"MEAN_ANOMALY":272.3163,"EPHEMERIS_TYPE":0,"CLASSIFICATION_TYPE":"U","NORAD_CAT_ID":32376,"ELEMENT_SET_NO":999,"REV_AT_EPOCH":99014,"BSTAR":4.6204e-5,"MEAN_MOTION_DOT":3.16e-6,"MEAN_MOTION_DDOT":0},{"OBJECT_NAME":"CARTOSAT-2A","OBJECT_ID":"2008-021A","EPOCH":"2026-03-29T03:45:21.214656","MEAN_MOTION":14.79133781,"ECCENTRICITY":0.0012276,"INCLINATION":97.7738,"RA_OF_ASC_NODE":139.5657,"ARG_OF_PERICENTER":18.5776,"MEAN_ANOMALY":341.5882,"EPHEMERIS_TYPE":0,"CLASSIFICATION_TYPE":"U","NORAD_CAT_ID":32783,"ELEMENT_SET_NO":999,"REV_AT_EPOCH":96697,"BSTAR":7.819e-5,"MEAN_MOTION_DOT":5.3e-6,"MEAN_MOTION_DDOT":0},{"OBJECT_NAME":"CUTE-1.7+APD II (CO-65)","OBJECT_ID":"2008-021C","EPOCH":"2026-03-29T05:09:53.830368","MEAN_MOTION":15.08638044,"ECCENTRICITY":0.0007607,"INCLINATION":97.8228,"RA_OF_ASC_NODE":68.044,"ARG_OF_PERICENTER":309.0033,"MEAN_ANOMALY":51.0517,"EPHEMERIS_TYPE":0,"CLASSIFICATION_TYPE":"U","NORAD_CAT_ID":32785,"ELEMENT_SET_NO":999,"REV_AT_EPOCH":97313,"BSTAR":0.00059137,"MEAN_MOTION_DOT":9.202e-5,"MEAN_MOTION_DDOT":0},{"OBJECT_NAME":"SEEDS II (CO-66)","OBJECT_ID":"2008-021J","EPOCH":"2026-03-28T12:01:52.460832","MEAN_MOTION":15.2986394,"ECCENTRICITY":0.0001837,"INCLINATION":97.7522,"RA_OF_ASC_NODE":81.7278,"ARG_OF_PERICENTER":175.4551,"MEAN_ANOMALY":184.6705,"EPHEMERIS_TYPE":0,"CLASSIFICATION_TYPE":"U","NORAD_CAT_ID":32791,"ELEMENT_SET_NO":999,"REV_AT_EPOCH":97494,"BSTAR":0.00078688,"MEAN_MOTION_DOT":0.0002272,"MEAN_MOTION_DDOT":0},{"OBJECT_NAME":"YUBILEINY (RS30)","OBJECT_ID":"2008-025A","EPOCH":"2026-03-29T04:24:26.934912","MEAN_MOTION":12.43176873,"ECCENTRICITY":0.0020215,"INCLINATION":82.5033,"RA_OF_ASC_NODE":45.1937,"ARG_OF_PERICENTER":123.4599,"MEAN_ANOMALY":236.8417,"EPHEMERIS_TYPE":0,"CLASSIFICATION_TYPE":"U","NORAD_CAT_ID":32953,"ELEMENT_SET_NO":999,"REV_AT_EPOCH":80975,"BSTAR":0.00050774,"MEAN_MOTION_DOT":8.1e-7,"MEAN_MOTION_DDOT":0}]
