CUBESAT XI-V            
1 28895U 05043F   26087.67640956  .00002007  00000+0  32469-3 0  9995
2 28895  98.2868 241.6643 0015362 101.1756 259.1179 14.72395539 89907
CLOUDSAT                
1 29107U 06016A   26088.17161287  .00001433  00000+0  17000-3 0  9990
2 29107  98.4021 121.0013 0004375 219.9234 140.1659 14.86223406 62620
CALIPSO                 
1 29108U 06016B   26088.14179911  .00001381  00000+0  24351-3 0  9990
2 29108  98.4521 101.0692 0001471 109.0107 251.1257 14.69187918 61308
HINODE (SOLAR-B)        
1 29479U 06041A   26088.05909660  .00000784  00000+0  14349-3 0  9993
2 29479  98.0608 105.3797 0017562 177.7727 182.3560 14.68504391 43110
METOP-A                 
1 29499U 06044A   26088.18834663  .00001707  00000+0  20324-3 0  9998
2 29499  98.3254 192.4341 0173949 324.7677  94.5650 14.75644767 13654
SHIJIAN-6 02B (SJ-6 02B)
1 29506U 06046B   26088.16319133  .00002330  00000+0  18658-3 0  9997
2 29506  97.7102 117.7467 0012782 340.9439  19.1305 15.01094763 58733
DMSP 5D-3 F17 (USA 191) 
1 29522U 06050A   26088.12395367  .00000225  00000+0  13871-3 0  9992
2 29522  98.7409  96.3249 0008945 286.8612  73.1580 14.14972726  1100
LAPAN-TUBSAT            
1 29709U 07001A   26088.18726568  .00000160  00000+0  25020-4 0  9991
2 29709  98.1347  85.6174 0013594  86.2598 274.0170 14.85856822 39273
HAIYANG-1B              
1 31113U 07010A   26087.94590929  .00000125  00000+0  63282-4 0  9999
2 31113  98.3452  72.9243 0014744  79.9917 280.2930 14.31005416989152
BEIDOU-2 M1             
1 31115U 07011A   26086.62334465 -.00000020  00000+0  00000+0 0  9996
2 31115  50.9604 221.9879 0001952  29.0034 330.9599  1.77349210 74700
CAPE-1                  
1 31130U 07012P   26087.90558769  .00002221  00000+0  40709-3 0  9999
2 31130  98.4393  60.2907 0083030 322.6407  36.9038 14.64668975  6605
CBERS 2B                
1 32062U 07042A   26087.86012746  .00000284  00000+0  10025-3 0  9997
2 32062  98.3854  33.9446 0030228 214.9549 207.6098 14.41430427973113
COSMO-SKYMED 2          
1 32376U 07059A   26088.16106215  .00000316  00000+0  46204-4 0  9997
2 32376  97.8878 272.9162 0001288  87.8197 272.3163 14.82148334990143
CARTOSAT-2A             
1 32783U 08021A   26088.15649554  .00000530  00000+0  78190-4 0  9993
2 32783  97.7738 139.5657 0012276  18.5776 341.5882 14.79133781966976
CUTE-1.7+APD II (CO-65) 
1 32785U 08021C   26088.21520637  .00009202  00000+0  59137-3 0  9996
2 32785  97.8228  68.0440 0007607 309.0033  51.0517 15.08638044973134
SEEDS II (CO-66)        
1 32791U 08021J   26087.50130163  .00022720  00000+0  78688-3 0  9997
2 32791  97.7522  81.7278 0001837 175.4551 184.6705 15.29863940974947
YUBILEINY (RS30)        
1 32953U 08025A   26088.18364508  .00000081  00000+0  50774-3 0  9990
2 32953  82.5033  45.1937 0020215 123.4599 236.8417 12.43176873809759
